NORAD_CAT_ID,OBJECT_NAME,OBJECT_TYPE,EPOCH,MEAN_MOTION,ECCENTRICITY,INCLINATION,RA_OF_ASC_NODE,ARG_OF_PERICENTER,MEAN_ANOMALY,BSTAR,MEAN_MOTION_DOT,MEAN_MOTION_DDOT,TLE_LINE0,TLE_LINE1,TLE_LINE2,SEMIMAJOR_AXIS,PERIOD,APOGEE,PERIGEE,DECAYED
50842.0,STARLINK-3302,PAYLOAD,2022-01-11 20:00:01,15.94903244,0.0053576,53.2176,175.5723,179.5116,218.7082,-0.001992,-0.00916458,0.00026905,0 STARLINK-3302,1 50842U 22001AR  22011.83334491 -.00916458  26905-3 -19920-2 0  9998,2 50842  53.2176 175.5723 0053576 179.5116 218.7082 15.94903244  2080,6666.721,90.288,324.3040000000001,252.868,0.0
50842.0,STARLINK-3302,PAYLOAD,2022-01-12 06:00:00,15.94155042,0.0050103,53.2174,173.4424,181.2671,90.1511,-0.002043,-0.00884527,0.00025048,0 STARLINK-3302,1 50842U 22001AR  22012.25001157 -.00884527  25048-3 -20430-2 0  9991,2 50842  53.2174 173.4424 0050103 181.2671  90.1511 15.94155042  2143,6668.807,90.33,324.085,257.259,0.0
50842.0,STARLINK-3302,PAYLOAD,2022-01-12 14:00:01,15.93588955,0.0047125,53.2177,171.7425,182.2464,202.925,-0.0022371,-0.00924338,0.00026966,0 STARLINK-3302,1 50842U 22001AR  22012.58334491 -.00924338  26966-3 -22371-2 0  9998,2 50842  53.2177 171.7425 0047125 182.2464 202.9250 15.93588955  1435,6670.386,90.362,323.685,260.817,0.0
50842.0,STARLINK-3302,PAYLOAD,2022-01-12 16:00:00,15.93416959,0.0046433,53.2175,171.3182,182.2784,321.2321,-0.0021363,-0.00871953,0.00024231,0 STARLINK-3302,1 50842U 22001AR  22012.66667824 -.00871953  24231-3 -21363-2 0  9993,2 50842  53.2175 171.3182 0046433 182.2784 321.2321 15.93416959  2210,6670.866,90.372,323.706,261.756,0.0
50842.0,STARLINK-3302,PAYLOAD,2022-01-12 22:00:00,15.9297805,0.0044012,53.2173,170.0446,185.3629,312.8733,-0.0022133,-0.0087226,0.00024141,0 STARLINK-3302,1 50842U 22001AR  22012.91667824 -.00872260  24141-3 -22133-2 0  9999,2 50842  53.2173 170.0446 0044012 185.3629 312.8733 15.92978050  2251,6672.090999999999,90.397,323.322,264.591,0.0
50842.0,STARLINK-3302,PAYLOAD,2022-01-13 14:00:01,15.91829984,0.0038173,53.2174,166.6497,188.9057,173.3248,-0.0025506,-0.00922344,0.00026399,0 STARLINK-3302,1 50842U 22001AR  22013.58334491 -.00922344  26399-3 -25506-2 0  9997,2 50842  53.2174 166.6497 0038173 188.9057 173.3248 15.91829984  2356,6675.299,90.462,322.646,271.682,0.0
50842.0,STARLINK-3302,PAYLOAD,2022-01-13 20:00:01,15.91388222,0.00376,53.2174,165.3798,187.4935,168.0116,-0.0026043,-0.00917968,0.00026062,0 STARLINK-3302,1 50842U 22001AR  22013.83334491 -.00917968  26062-3 -26043-2 0  9995,2 50842  53.2174 165.3798 0037600 187.4935 168.0116 15.91388222  2393,6676.534000000002,90.487,323.503,273.295,0.0
50842.0,STARLINK-3302,PAYLOAD,2022-01-13 22:00:00,15.91229472,0.0035535,53.2172,164.956,190.9319,282.2474,-0.0025671,-0.00891141,0.00024666,0 STARLINK-3302,1 50842U 22001AR  22013.91667824 -.00891141  24666-3 -25671-2 0  9991,2 50842  53.2172 164.9560 0035535 190.9319 282.2474 15.91229472  1647,6676.978,90.496,322.57,275.117,0.0
50842.0,STARLINK-3302,PAYLOAD,2022-01-14 06:00:00,15.9063347,0.0032773,53.2175,163.2605,193.5188,29.9063,-0.0026104,-0.00870668,0.00023518,0 STARLINK-3302,1 50842U 22001AR  22014.25001157 -.00870668  23518-3 -26104-2 0  9998,2 50842  53.2175 163.2605 0032773 193.5188  29.9063 15.90633470  2463,6678.646,90.53,322.399,278.623,0.0
50842.0,STARLINK-3302,PAYLOAD,2022-01-14 14:00:01,15.90069766,0.0029933,53.2176,161.5699,196.1974,136.7558,-0.0028552,-0.00916794,0.00025674,0 STARLINK-3302,1 50842U 22001AR  22014.58334491 -.00916794  25674-3 -28552-2 0  9999,2 50842  53.2176 161.5699 0029933 196.1974 136.7558 15.90069766  2517,6680.224,90.562,322.085,282.094,0.0
50842.0,STARLINK-3302,PAYLOAD,2022-01-14 22:00:00,15.89482091,0.0027341,53.2171,159.8805,198.9733,242.8123,-0.0029481,-0.00912259,0.00025304,0 STARLINK-3302,1 50842U 22001AR  22014.91667824 -.00912259  25304-3 -29481-2 0  9999,2 50842  53.2171 159.8805 0027341 198.9733 242.8123 15.89482091  2576,6681.871,90.596,322.005,285.467,0.0
50842.0,STARLINK-3302,PAYLOAD,2022-01-15 04:00:00,15.89042467,0.0025092,53.2174,158.6119,202.1314,230.8178,-0.0030312,-0.00912306,0.00025201,0 STARLINK-3302,1 50842U 22001AR  22015.16667824 -.00912306  25201-3 -30312-2 0  9991,2 50842  53.2174 158.6119 0025092 202.1314 230.8178 15.89042467  2619,6683.103,90.621,321.738,288.199,0.0
50842.0,STARLINK-3302,PAYLOAD,2022-01-15 14:00:01,15.88304633,0.0021887,53.2175,156.5033,206.247,91.1604,-0.0031292,-0.00901363,0.00024488,0 STARLINK-3302,1 50842U 22001AR  22015.58335648 -.00901363  24488-3 -31292-2 0  9998,2 50842  53.2175 156.5033 0021887 206.2470  91.1604 15.88304633  2671,6685.1730000000025,90.663,321.67,292.406,0.0
50842.0,STARLINK-3302,PAYLOAD,2022-01-15 22:00:01,15.87730584,0.0019453,53.2171,154.8177,210.8189,193.3042,-0.0033202,-0.00924991,0.00025523,0 STARLINK-3302,1 50842U 22001AR  22015.91668981 -.00924991  25523-3 -33202-2 0  9990,2 50842  53.2171 154.8177 0019453 210.8189 193.3042 15.87730584  2736,6686.784000000002,90.695,321.657,295.641,0.0
50842.0,STARLINK-3302,PAYLOAD,2022-01-16 06:00:00,15.87125494,0.0016503,53.2171,153.1312,216.78,293.3013,-0.0032919,-0.00886243,0.00023493,0 STARLINK-3302,1 50842U 22001AR  22016.25001157 -.00886243  23493-3 -32919-2 0  9999,2 50842  53.2171 153.1312 0016503 216.7800 293.3013 15.87125494  2789,6688.484,90.73,321.387,299.311,0.0
50842.0,STARLINK-3302,PAYLOAD,2022-01-16 14:00:01,15.86537921,0.0014335,53.2173,151.4498,223.8259,31.5673,-0.0033856,-0.00809664,0.0,0 STARLINK-3302,1 50842U 22001AR  22016.58334491 -.00809664  00000-0 -33856-2 0  9994,2 50842  53.2173 151.4498 0014335 223.8259  31.5673 15.86537921  2072,6690.135,90.764,321.59,302.41,0.0
50842.0,STARLINK-3302,PAYLOAD,2022-01-16 22:00:00,15.85971569,0.0012495,53.217,149.7686,233.0888,126.9052,-0.0036431,-0.0084195,0.0,0 STARLINK-3302,1 50842U 22001AR  22016.91667824 -.00841950  00000-0 -36431-2 0  9996,2 50842  53.2170 149.7686 0012495 233.0888 126.9052 15.85971569  2129,6691.727,90.796,321.954,305.231,0.0
50842.0,STARLINK-3302,PAYLOAD,2022-01-17 06:00:00,15.85377733,0.0010438,53.2173,148.0862,245.5511,218.3516,-0.0036981,-0.00829125,0.0,0 STARLINK-3302,1 50842U 22001AR  22017.25001157 -.00829125  00000-0 -36981-2 0  9995,2 50842  53.2173 148.0862 0010438 245.5511 218.3516 15.85377733  2940,6693.398,90.83,322.25,308.277,0.0
50842.0,STARLINK-3302,PAYLOAD,2022-01-17 14:00:01,15.84778332,0.0009086,53.2175,146.4092,259.0415,308.0649,-0.0036906,-0.00804636,0.0,0 STARLINK-3302,1 50842U 22001AR  22017.58334491 -.00804636  00000-0 -36906-2 0  9998,2 50842  53.2175 146.4092 0009086 259.0415 308.0649 15.84778332  2234,6695.0859999999975,90.864,323.034,310.868,0.0
50842.0,STARLINK-3302,PAYLOAD,2022-01-17 22:00:00,15.84196458,0.0007574,53.2171,144.732,267.5472,42.0531,-0.0038259,-0.00809354,0.0,0 STARLINK-3302,1 50842U 22001AR  22017.91667824 -.00809354  00000-0 -38259-2 0  9999,2 50842  53.2171 144.7320 0007574 267.5472  42.0531 15.84196458  2285,6696.725,90.898,323.6620000000001,313.518,0.0
50842.0,STARLINK-3302,PAYLOAD,2022-01-18 14:00:01,15.83040178,0.0002701,53.2172,141.3817,233.4386,279.03700000000003,-0.0042079,-0.00836627,0.0,0 STARLINK-3302,1 50842U 22001AR  22018.58334491 -.00836627  00000-0 -42079-2 0  9992,2 50842  53.2172 141.3817 0002701 233.4386 279.0370 15.83040178  3159,6699.986,90.964,323.66,320.041,0.0
50842.0,STARLINK-3302,PAYLOAD,2022-01-18 22:00:00,15.82442389,0.0001829,53.2172,139.7086,199.6024,53.2612,-0.0042099,-0.00815307,0.0,0 STARLINK-3302,1 50842U 22001AR  22018.91667824 -.00815307  00000-0 -42099-2 0  9992,2 50842  53.2172 139.7086 0001829 199.6024  53.2612 15.82442389  2441,6701.6730000000025,90.999,324.764,322.312,0.0
50842.0,STARLINK-3302,PAYLOAD,2022-01-19 06:00:02,15.81776419,7.65e-05,53.2164,138.0346,356.1679,356.4895,-0.0037727,-0.00716035,0.0,0 STARLINK-3302,1 50842U 22001AR  22019.25002315 -.00716035  00000-0 -37727-2 0  9998,2 50842  53.2164 138.0346 0000765 356.1679 356.4895 15.81776419  3251,6703.554,91.037,325.932,324.906,0.0
50842.0,STARLINK-3302,PAYLOAD,2022-01-19 14:00:01,15.81211381,0.0001112,53.2167,136.3667,69.5375,22.0159,-0.0040255,-0.00741937,0.0,0 STARLINK-3302,1 50842U 22001AR  22019.58334491 -.00741937  00000-0 -40255-2 0  9996,2 50842  53.2167 136.3667 0001112  69.5375  22.0159 15.81211381  2559,6705.151,91.069,327.761,326.27,0.0
50842.0,STARLINK-3302,PAYLOAD,2022-01-19 22:00:00,15.8069032,0.0001148,53.2172,134.6983,78.5232,111.2658,-0.0046272,-0.00824397,0.0,0 STARLINK-3302,1 50842U 22001AR  22019.91667824 -.00824397  00000-0 -46272-2 0  9999,2 50842  53.2172 134.6983 0001148  78.5232 111.2658 15.80690320  3366,6706.624,91.099,329.259,327.719,0.0
50842.0,STARLINK-3302,PAYLOAD,2022-01-20 14:00:01,15.79405304,0.000101,53.2166,131.365,60.198,324.0837,-0.0039628,-0.00677019,0.0,0 STARLINK-3302,1 50842U 22001AR  22020.58334491 -.00677019  00000-0 -39628-2 0  9999,2 50842  53.2166 131.3650 0001010  60.1980 324.0837 15.79405304  2714,6710.262,91.174,332.8040000000001,331.449,0.0
50842.0,STARLINK-3302,PAYLOAD,2022-01-20 22:00:00,15.7893216,0.0001091,53.2174,129.7008,66.7157,53.6644,-0.0050053999999999,-0.00822619,0.0,0 STARLINK-3302,1 50842U 22001AR  22020.91667824 -.00822619  00000-0 -50054-2 0  9999,2 50842  53.2174 129.7008 0001091  66.7157  53.6644 15.78932160  3523,6711.602,91.201,334.199,332.735,0.0
50842.0,STARLINK-3302,PAYLOAD,2022-01-21 14:00:01,15.77760341,0.0001308,53.2175,126.3772,48.8464,261.7401,-0.0052778999999999,-0.00822577,0.0,0 STARLINK-3302,1 50842U 22001AR  22021.58334491 -.00822577  00000-0 -52779-2 0  9993,2 50842  53.2175 126.3772 0001308  48.8464 261.7401 15.77760341  2877,6714.925,91.269,337.668,335.911,0.0
50842.0,STARLINK-3302,PAYLOAD,2022-01-21 20:00:01,15.77320699,0.000118,53.2172,125.132,55.8806,235.3073,-0.0053713,-0.00820861,0.0,0 STARLINK-3302,1 50842U 22001AR  22021.83334491 -.00820861  00000-0 -53713-2 0  9994,2 50842  53.2172 125.1320 0001180  55.8806 235.3073 15.77320699  3664,6716.172,91.294,338.83,337.245,0.0
